NORAD_CAT_ID,OBJECT_NAME,OBJECT_TYPE,EPOCH,MEAN_MOTION,ECCENTRICITY,INCLINATION,RA_OF_ASC_NODE,ARG_OF_PERICENTER,MEAN_ANOMALY,BSTAR,MEAN_MOTION_DOT,MEAN_MOTION_DDOT,TLE_LINE0,TLE_LINE1,TLE_LINE2,SEMIMAJOR_AXIS,PERIOD,APOGEE,PERIGEE,DECAYED
50188.0,STARLINK-3275,PAYLOAD,2023-11-07 16:30:56,15.15337646,0.0001755,53.222,91.8629,299.9588,60.1233,0.00046051,8.487e-05,0.0,0 STARLINK-3275,1 50188U 21125AJ  23311.68815567  .00008487  00000-0  46051-3 0  9995,2 50188  53.2220  91.8629 0001755 299.9588  60.1233 15.15337646105104,6898.091,95.028,521.166,518.745,0.0
50188.0,STARLINK-3275,PAYLOAD,2023-11-08 02:00:49,15.15323293,0.0001621,53.2227,90.0723,293.322,66.7605,0.00021265,3.749e-05,0.0,0 STARLINK-3275,1 50188U 21125AJ  23312.08390936  .00003749  00000-0  21265-3 0  9994,2 50188  53.2227  90.0723 0001621 293.3220  66.7605 15.15323293105164,6898.134,95.029,521.117,518.881,0.0
50188.0,STARLINK-3275,PAYLOAD,2023-11-08 13:05:42,15.1531229,0.0001129,53.2224,87.9787,304.526,55.5628,-0.00025754,-5.212e-05,0.0,0 STARLINK-3275,1 50188U 21125AJ  23312.54562933 -.00005212  00000-0 -25754-3 0  9999,2 50188  53.2224  87.9787 0001129 304.5260  55.5628 15.15312290108370,6898.168,95.03,520.811,519.254,0.0
50188.0,STARLINK-3275,PAYLOAD,2023-11-08 16:15:39,15.15315385,0.0001155,53.2221,87.3811,310.7062,49.3832,-0.00023141,-4.715e-05,0.0,0 STARLINK-3275,1 50188U 21125AJ  23312.67753882 -.00004715  00000-0 -23141-3 0  9993,2 50188  53.2221  87.3811 0001155 310.7062  49.3832 15.15315385105257,6898.158,95.03,520.82,519.227,0.0
50188.0,STARLINK-3275,PAYLOAD,2023-11-09 01:45:31,15.15308542,0.0001224,53.2226,85.5893,308.8118,51.2767,-0.00031226,-6.253e-05,0.0,0 STARLINK-3275,1 50188U 21125AJ  23313.07328632 -.00006253  00000-0 -31226-3 0  9991,2 50188  53.2226  85.5893 0001224 308.8118  51.2767 15.15308542105312,6898.179,95.03,520.888,519.2,0.0
50188.0,STARLINK-3275,PAYLOAD,2023-11-09 08:05:27,15.15293576,8.41e-05,53.2225,84.3932,350.9687,9.1293,-0.00025349,-5.132e-05,0.0,0 STARLINK-3275,1 50188U 21125AJ  23313.33712230 -.00005132  00000-0 -25349-3 0  9995,2 50188  53.2225  84.3932 0000841 350.9687   9.1293 15.15293576105355,6898.224,95.031,520.67,519.509,0.0
50188.0,STARLINK-3275,PAYLOAD,2023-11-09 14:25:22,15.15301056,0.0001251,53.2229,83.195,321.8196,38.271,-0.00046398,-9.136e-05,0.0,0 STARLINK-3275,1 50188U 21125AJ  23313.60095226 -.00009136  00000-0 -46398-3 0  9999,2 50188  53.2229  83.1950 0001251 321.8196  38.2710 15.15301056108537,6898.202,95.031,520.93,519.204,0.0
50188.0,STARLINK-3275,PAYLOAD,2023-11-09 16:00:21,15.15295477,0.0001042,53.2224,82.897,325.4995,34.5932,-0.00048977,-9.625e-05,0.0,0 STARLINK-3275,1 50188U 21125AJ  23313.66691405 -.00009625  00000-0 -48977-3 0  9994,2 50188  53.2224  82.8970 0001042 325.4995  34.5932 15.15295477108540,6898.219,95.031,520.802,519.365,0.0
50188.0,STARLINK-3275,PAYLOAD,2023-11-10 01:30:14,15.15279615,8.1e-05,53.2224,81.1057,323.2454,36.8485,-0.0004568,-8.994e-05,0.0,0 STARLINK-3275,1 50188U 21125AJ  23314.06267031 -.00008994  00000-0 -45680-3 0  9999,2 50188  53.2224  81.1057 0000810 323.2454  36.8485 15.15279615105468,6898.267,95.032,520.691,519.573,0.0
50188.0,STARLINK-3275,PAYLOAD,2023-11-10 09:25:09,15.15256846,9.94e-05,53.2222,79.6076,336.7604,23.3346,-0.00030244,-6.057e-05,0.0,0 STARLINK-3275,1 50188U 21125AJ  23314.39247180 -.00006057  00000-0 -30244-3 0  9996,2 50188  53.2222  79.6076 0000994 336.7604  23.3346 15.15256846105512,6898.336,95.033,520.887,519.515,0.0
50188.0,STARLINK-3275,PAYLOAD,2023-11-10 14:10:06,15.15251258,0.0001158,53.2219,78.7109,352.9464,7.1514,-0.0003056,-6.116e-05,0.0,0 STARLINK-3275,1 50188U 21125AJ  23314.59035457 -.00006116  00000-0 -30560-3 0  9997,2 50188  53.2219  78.7109 0001158 352.9464   7.1514 15.15251258108682,6898.353,95.034,521.017,519.419,0.0
50188.0,STARLINK-3275,PAYLOAD,2023-11-10 15:45:06,15.15238222,7.26e-05,53.2219,78.411,3.9792,356.1209,-0.00027575,-5.547e-05,0.0,0 STARLINK-3275,1 50188U 21125AJ  23314.65632029 -.00005547  00000-0 -27575-3 0  9991,2 50188  53.2219  78.4110 0000726   3.9792 356.1209 15.15238222105555,6898.392,95.035,520.758,519.757,0.0
50188.0,STARLINK-3275,PAYLOAD,2023-11-11 12:19:54,15.15205956,8.6e-05,53.2231,74.5237,23.9339,336.1695,-0.00027611,-5.549e-05,0.0,0 STARLINK-3275,1 50188U 21125AJ  23315.51383054 -.00005549  00000-0 -27611-3 0  9991,2 50188  53.2231  74.5237 0000860  23.9339 336.1695 15.15205956105683,6898.49,95.037,520.949,519.762,0.0
50188.0,STARLINK-3275,PAYLOAD,2023-11-11 13:54:53,15.15206483,0.0001014,53.2226,74.224,12.2614,347.8405,-0.00026076,-5.258e-05,0.0,0 STARLINK-3275,1 50188U 21125AJ  23315.57979135 -.00005258  00000-0 -26076-3 0  9999,2 50188  53.2226  74.2240 0001014  12.2614 347.8405 15.15206483108831,6898.489,95.037,521.053,519.654,0.0
50188.0,STARLINK-3275,PAYLOAD,2023-11-11 18:39:52,15.15193988,7.88e-05,53.2226,73.3294,25.2249,334.8784,-0.00030487,-6.093e-05,0.0,0 STARLINK-3275,1 50188U 21125AJ  23315.77768589 -.00006093  00000-0 -30487-3 0  9999,2 50188  53.2226  73.3294 0000788  25.2249 334.8784 15.15193988105721,6898.527,95.037,520.935,519.848,0.0
50188.0,STARLINK-3275,PAYLOAD,2023-11-12 13:39:43,15.15179838,9.35e-05,53.2231,69.7411,44.1021,316.0049,-0.0004997,-9.782e-05,0.0,0 STARLINK-3275,1 50188U 21125AJ  23316.56925436 -.00009782  00000-0 -49970-3 0  9998,2 50188  53.2231  69.7411 0000935  44.1021 316.0049 15.15179838108984,6898.57,95.038,521.08,519.79,0.0
50188.0,STARLINK-3275,PAYLOAD,2023-11-12 15:14:43,15.15157303,9.06e-05,53.2229,69.4421,43.2849,316.8217,-0.0003081,-6.148e-05,0.0,0 STARLINK-3275,1 50188U 21125AJ  23316.63522551 -.00006148  00000-0 -30810-3 0  9993,2 50188  53.2229  69.4421 0000906  43.2849 316.8217 15.15157303105856,6898.638,95.04,521.128,519.878,0.0
50188.0,STARLINK-3275,PAYLOAD,2023-11-13 11:49:36,15.15119773,9.5e-05,53.2239,65.5531,73.2681,286.8419,-0.00030669,-6.115e-05,0.0,0 STARLINK-3275,1 50188U 21125AJ  23317.49278868 -.00006115  00000-0 -30669-3 0  9993,2 50188  53.2239  65.5531 0000950  73.2681 286.8419 15.15119773105985,6898.752,95.042,521.272,519.962,0.0
50188.0,STARLINK-3275,PAYLOAD,2023-11-13 13:24:36,15.15117835,9.47e-05,53.2236,65.2535,95.5001,264.6102,-0.00031077,-6.192e-05,0.0,0 STARLINK-3275,1 50188U 21125AJ  23317.55875497 -.00006192  00000-0 -31077-3 0  9990,2 50188  53.2236  65.2535 0000947  95.5001 264.6102 15.15117835109133,6898.758,95.042,521.276,519.97,0.0
50188.0,STARLINK-3275,PAYLOAD,2023-11-14 00:29:34,15.15091094,0.0001384,53.2232,63.164,49.5883,310.5232,-0.00032159,-6.392e-05,0.0,0 STARLINK-3275,1 50188U 21125AJ  23318.02053685 -.00006392  00000-0 -32159-3 0  9994,2 50188  53.2232  63.1640 0001384  49.5883 310.5232 15.15091094106068,6898.839,95.044,521.659,519.749,0.0
50188.0,STARLINK-3275,PAYLOAD,2023-11-14 11:34:32,15.1506257,0.0001553,53.2239,61.0715,57.0084,303.106,-0.00026162,-5.254e-05,0.0,0 STARLINK-3275,1 50188U 21125AJ  23318.48232114 -.00005254  00000-0 -26162-3 0  9993,2 50188  53.2239  61.0715 0001553  57.0084 303.1060 15.15062570106132,6898.926,95.046,521.862,519.719,0.0
50188.0,STARLINK-3275,PAYLOAD,2023-11-14 13:09:32,15.1506145,0.0001404,53.2233,60.7722,56.4311,303.6818,-0.00026562,-5.329e-05,0.0,0 STARLINK-3275,1 50188U 21125AJ  23318.54828933 -.00005329  00000-0 -26562-3 0  9997,2 50188  53.2233  60.7722 0001404  56.4311 303.6818 15.15061450109282,6898.929,95.046,521.763,519.825,0.0
50188.0,STARLINK-3275,PAYLOAD,2023-11-15 11:19:30,15.15020193,0.0001569,53.2217,56.5887,47.6198,312.493,-0.00022127,-4.486e-05,0.0,0 STARLINK-3275,1 50188U 21125AJ  23319.47187571 -.00004486  00000-0 -22127-3 0  9992,2 50188  53.2217  56.5887 0001569  47.6198 312.4930 15.15020193106285,6899.054,95.048,522.002,519.837,0.0
50188.0,STARLINK-3275,PAYLOAD,2023-11-15 12:54:30,15.1501537,0.0001466,53.2222,56.2884,48.844,311.2682,-0.00026527,-5.316e-05,0.0,0 STARLINK-3275,1 50188U 21125AJ  23319.53784980 -.00005316  00000-0 -26527-3 0  9997,2 50188  53.2222  56.2884 0001466  48.8440 311.2682 15.15015370109436,6899.069,95.049,521.945,519.922,0.0
50188.0,STARLINK-3275,PAYLOAD,2023-11-15 23:59:30,15.14996967,0.0001385,53.2223,54.1958,51.6359,308.476,-0.00031088,-6.174e-05,0.0,0 STARLINK-3275,1 50188U 21125AJ  23319.99965456 -.00006174  00000-0 -31088-3 0  9997,2 50188  53.2223  54.1958 0001385  51.6359 308.4760 15.14996967106360,6899.125,95.05,521.945,520.034,0.0
50188.0,STARLINK-3275,PAYLOAD,2023-11-16 06:19:30,15.14982746,0.0001843,53.2234,52.9998,65.9994,294.1194,-0.00025527,-5.123e-05,0.0,0 STARLINK-3275,1 50188U 21125AJ  23320.26354607 -.00005123  00000-0 -25527-3 0  9993,2 50188  53.2234  52.9998 0001843  65.9994 294.1194 15.14982746106401,6899.168,95.051,522.304,519.761,0.0
50188.0,STARLINK-3275,PAYLOAD,2023-11-16 23:44:32,15.1494873,0.0001475,53.2225,49.7113,61.6154,298.499,-0.00028338,-5.648e-05,0.0,0 STARLINK-3275,1 50188U 21125AJ  23320.98926106 -.00005648  00000-0 -28338-3 0  9996,2 50188  53.2225  49.7113 0001475  61.6154 298.4990 15.14948730106514,6899.271,95.053,522.154,520.119,0.0
50188.0,STARLINK-3275,PAYLOAD,2023-11-17 12:24:34,15.14917943,0.0001561,53.2222,47.3228,52.7518,307.3619,-0.00028387,-5.652e-05,0.0,0 STARLINK-3275,1 50188U 21125AJ  23321.51706666 -.00005652  00000-0 -28387-3 0  9992,2 50188  53.2222  47.3228 0001561  52.7518 307.3619 15.14917943106591,6899.365,95.055,522.307,520.153,0.0
50188.0,STARLINK-3275,PAYLOAD,2023-11-17 15:34:34,15.14918153,0.0001615,53.2223,46.7247,54.1105,306.0039,-0.0002714,-5.418e-05,0.0,0 STARLINK-3275,1 50188U 21125AJ  23321.64901427 -.00005418  00000-0 -27140-3 0  9994,2 50188  53.2223  46.7247 0001615  54.1105 306.0039 15.14918153109751,6899.364,95.055,522.343,520.115,0.0
50188.0,STARLINK-3275,PAYLOAD,2023-11-18 12:09:40,15.14870987,0.0001491,53.2248,42.8382,56.9238,303.19,-0.00028033,-5.578e-05,0.0,0 STARLINK-3275,1 50188U 21125AJ  23322.50672167 -.00005578  00000-0 -28033-3 0  9995,2 50188  53.2248  42.8382 0001491  56.9238 303.1900 15.14870987106747,6899.507,95.058,522.401,520.344,0.0
